{
  "norad_id": 65859,
  "name": "STARLINK-35408",
  "history": [
    {
      "epoch": "2026-03-28T15:34:35.215680Z",
      "apogee_km": 476.22022696370186,
      "perigee_km": 474.1011873126554,
      "latitude_deg": 5.9663117088031995e-06,
      "longitude_deg": 146.73943459537884,
      "height_km": 475.4888504077719,
      "semi_major_axis_km": 6853.297707138178,
      "eccentricity": 0.0001546,
      "inclination_deg": 53.1599,
      "raan_deg": 206.4526,
      "arg_perigee_deg": 57.4607,
      "mean_anomaly_deg": 302.6543,
      "mean_motion_rev_day": 15.30218207
    },
    {
      "epoch": "2026-03-29T00:58:54.166080Z",
      "apogee_km": 476.06422690552245,
      "perigee_km": 474.2947005945816,
      "latitude_deg": 1.3472286893412616e-05,
      "longitude_deg": 3.4516196040505673,
      "height_km": 475.9848354221613,
      "semi_major_axis_km": 6853.316463750051,
      "eccentricity": 0.0001291,
      "inclination_deg": 53.1607,
      "raan_deg": 204.63,
      "arg_perigee_deg": 83.9817,
      "mean_anomaly_deg": 276.1331,
      "mean_motion_rev_day": 15.30211925
    },
    {
      "epoch": "2026-03-30T00:29:41.749440Z",
      "apogee_km": 475.355438745064,
      "perigee_km": 474.9974216514711,
      "latitude_deg": 5.987411285462863e-06,
      "longitude_deg": 5.238497004677976,
      "height_km": 476.2474643903137,
      "semi_major_axis_km": 6853.313430198267,
      "eccentricity": 2.612e-05,
      "inclination_deg": 53.1626,
      "raan_deg": 200.0808,
      "arg_perigee_deg": 197.2511,
      "mean_anomaly_deg": 162.8481,
      "mean_motion_rev_day": 15.30212941
    },
    {
      "epoch": "2026-03-30T13:02:08.095200Z",
      "apogee_km": 476.0511746910888,
      "perigee_km": 474.36730751965024,
      "latitude_deg": 4.855277378330223e-05,
      "longitude_deg": 174.18442905997026,
      "height_km": 476.2145345520489,
      "semi_major_axis_km": 6853.34624110537,
      "eccentricity": 0.00012285,
      "inclination_deg": 53.1611,
      "raan_deg": 197.6515,
      "arg_perigee_deg": 97.304,
      "mean_anomaly_deg": 262.8101,
      "mean_motion_rev_day": 15.30201952
    },
    {
      "epoch": "2026-03-30T16:10:14.494368Z",
      "apogee_km": 475.9032528855623,
      "perigee_km": 474.5460131477612,
      "latitude_deg": 4.582710858087335e-05,
      "longitude_deg": 126.42350955402111,
      "height_km": 476.2016677210203,
      "semi_major_axis_km": 6853.3616330166615,
      "eccentricity": 9.902e-05,
      "inclination_deg": 53.1591,
      "raan_deg": 197.046,
      "arg_perigee_deg": 96.6578,
      "mean_anomaly_deg": 263.4536,
      "mean_motion_rev_day": 15.30196797
    },
    {
      "epoch": "2026-03-31T06:16:42.677184Z",
      "apogee_km": 475.91385595617885,
      "perigee_km": 474.3334940445229,
      "latitude_deg": -2.4804617196994476e-06,
      "longitude_deg": -88.50334202537618,
      "height_km": 476.11030002068026,
      "semi_major_axis_km": 6853.260675000351,
      "eccentricity": 0.0001153,
      "inclination_deg": 53.1586,
      "raan_deg": 194.316,
      "arg_perigee_deg": 96.4321,
      "mean_anomaly_deg": 263.6811,
      "mean_motion_rev_day": 15.3023061
    },
    {
      "epoch": "2026-03-31T23:31:18.268320Z",
      "apogee_km": 475.7642941775648,
      "perigee_km": 474.6266409879445,
      "latitude_deg": 1.8198350896521252e-05,
      "longitude_deg": 8.801924118406491,
      "height_km": 475.973936082758,
      "semi_major_axis_km": 6853.332467582754,
      "eccentricity": 8.3e-05,
      "inclination_deg": 53.1583,
      "raan_deg": 190.9777,
      "arg_perigee_deg": 282.383,
      "mean_anomaly_deg": 77.7078,
      "mean_motion_rev_day": 15.30206565
    },
    {
      "epoch": "2026-04-02T13:08:34.743840Z",
      "apogee_km": 476.044151694442,
      "perigee_km": 474.3524744057695,
      "latitude_deg": 5.6203576191818505e-05,
      "longitude_deg": 155.6590565233691,
      "height_km": 476.00688714676306,
      "semi_major_axis_km": 6853.3353130501055,
      "eccentricity": 0.00012342,
      "inclination_deg": 53.1572,
      "raan_deg": 183.6985,
      "arg_perigee_deg": 83.9428,
      "mean_anomaly_deg": 276.1714,
      "mean_motion_rev_day": 15.30205612
    },
    {
      "epoch": "2026-04-02T22:32:53.533536Z",
      "apogee_km": 475.8960205611402,
      "perigee_km": 474.385695186822,
      "latitude_deg": -1.0345694378588525e-05,
      "longitude_deg": 12.372058175745126,
      "height_km": 475.8555094304116,
      "semi_major_axis_km": 6853.277857873981,
      "eccentricity": 0.00011019,
      "inclination_deg": 53.1565,
      "raan_deg": 181.8761,
      "arg_perigee_deg": 75.9496,
      "mean_anomaly_deg": 284.1627,
      "mean_motion_rev_day": 15.30224855
    },
    {
      "epoch": "2026-04-03T12:39:22.624416Z",
      "apogee_km": 475.8126979469698,
      "perigee_km": 474.8308714414743,
      "latitude_deg": -2.1550620268440438e-06,
      "longitude_deg": 157.4398539911158,
      "height_km": 476.1558628729914,
      "semi_major_axis_km": 6853.458784694221,
      "eccentricity": 7.163e-05,
      "inclination_deg": 53.1575,
      "raan_deg": 179.1445,
      "arg_perigee_deg": 82.4547,
      "mean_anomaly_deg": 277.6535,
      "mean_motion_rev_day": 15.3016426
    },
    {
      "epoch": "2026-04-04T15:18:17.284320Z",
      "apogee_km": 475.9792558138888,
      "perigee_km": 474.1782307165595,
      "latitude_deg": 3.0237412405195746e-05,
      "longitude_deg": 111.46321219548551,
      "height_km": 476.29519590067105,
      "semi_major_axis_km": 6853.215743265224,
      "eccentricity": 0.0001314,
      "inclination_deg": 53.1574,
      "raan_deg": 173.99,
      "arg_perigee_deg": 110.7194,
      "mean_anomaly_deg": 249.3948,
      "mean_motion_rev_day": 15.30245659
    },
    {
      "epoch": "2026-04-05T11:41:00.040992Z",
      "apogee_km": 476.13704099765346,
      "perigee_km": 474.4288946048782,
      "latitude_deg": -2.9357613293030435e-05,
      "longitude_deg": 161.00439673048146,
      "height_km": 476.0755291127461,
      "semi_major_axis_km": 6853.419967801266,
      "eccentricity": 0.00012462,
      "inclination_deg": 53.1575,
      "raan_deg": 170.0463,
      "arg_perigee_deg": 82.9187,
      "mean_anomaly_deg": 277.1955,
      "mean_motion_rev_day": 15.3017726
    },
    {
      "epoch": "2026-04-06T04:55:34.927968Z",
      "apogee_km": 475.9997369446737,
      "perigee_km": 474.3091670092999,
      "latitude_deg": 4.424075872064734e-06,
      "longitude_deg": -101.68698776629913,
      "height_km": 475.90892989529453,
      "semi_major_axis_km": 6853.2914519769865,
      "eccentricity": 0.00012334,
      "inclination_deg": 53.1573,
      "raan_deg": 166.7084,
      "arg_perigee_deg": 80.2333,
      "mean_anomaly_deg": 279.8807,
      "mean_motion_rev_day": 15.30220302
    },
    {
      "epoch": "2026-04-07T10:42:34.811136Z",
      "apogee_km": 476.2048318332709,
      "perigee_km": 474.26190133434284,
      "latitude_deg": 3.630798146469679e-05,
      "longitude_deg": 164.57376280502882,
      "height_km": 476.05032837266566,
      "semi_major_axis_km": 6853.370366583807,
      "eccentricity": 0.00014175,
      "inclination_deg": 53.1586,
      "raan_deg": 160.9418,
      "arg_perigee_deg": 85.2314,
      "mean_anomaly_deg": 274.8849,
      "mean_motion_rev_day": 15.30193872
    },
    {
      "epoch": "2026-04-08T13:21:29.274912Z",
      "apogee_km": 476.1451015128023,
      "perigee_km": 474.3255311628154,
      "latitude_deg": 1.6370001099881454e-05,
      "longitude_deg": 118.59769875423996,
      "height_km": 475.902598305518,
      "semi_major_axis_km": 6853.372316337809,
      "eccentricity": 0.00013275,
      "inclination_deg": 53.1594,
      "raan_deg": 155.7871,
      "arg_perigee_deg": 75.3102,
      "mean_anomaly_deg": 284.8046,
      "mean_motion_rev_day": 15.30193219
    },
    {
      "epoch": "2026-04-09T20:42:33.149088Z",
      "apogee_km": 476.0806821239494,
      "perigee_km": 474.35089588000665,
      "latitude_deg": -1.592074573182101e-05,
      "longitude_deg": 0.9759854693793818,
      "height_km": 475.9363615936981,
      "semi_major_axis_km": 6853.352789001978,
      "eccentricity": 0.0001262,
      "inclination_deg": 53.1589,
      "raan_deg": 149.7191,
      "arg_perigee_deg": 78.1614,
      "mean_anomaly_deg": 281.9528,
      "mean_motion_rev_day": 15.30199759
    },
    {
      "epoch": "2026-04-10T12:23:05.024832Z",
      "apogee_km": 475.9877932336567,
      "perigee_km": 474.4252309129042,
      "latitude_deg": -3.1360594121258746e-05,
      "longitude_deg": 122.16658596317266,
      "height_km": 475.8542404210963,
      "semi_major_axis_km": 6853.34351207328,
      "eccentricity": 0.000114,
      "inclination_deg": 53.1603,
      "raan_deg": 146.6863,
      "arg_perigee_deg": 71.2877,
      "mean_anomaly_deg": 288.8247,
      "mean_motion_rev_day": 15.30202866
    },
    {
      "epoch": "2026-04-11T19:44:08.988864Z",
      "apogee_km": 476.12869140879866,
      "perigee_km": 474.2865123798092,
      "latitude_deg": -4.261195876963645e-05,
      "longitude_deg": 4.541314372581806,
      "height_km": 476.0611413067597,
      "semi_major_axis_km": 6853.344601894303,
      "eccentricity": 0.0001344,
      "inclination_deg": 53.159,
      "raan_deg": 140.6151,
      "arg_perigee_deg": 87.241,
      "mean_anomaly_deg": 272.8744,
      "mean_motion_rev_day": 15.30202501
    },
    {
      "epoch": "2026-04-12T19:14:56.743296Z",
      "apogee_km": 476.0866784634118,
      "perigee_km": 474.3294807849952,
      "latitude_deg": 1.0768849562017596e-05,
      "longitude_deg": 6.327621173930893,
      "height_km": 476.018831570437,
      "semi_major_axis_km": 6853.345079624203,
      "eccentricity": 0.0001282,
      "inclination_deg": 53.159,
      "raan_deg": 136.066,
      "arg_perigee_deg": 84.3035,
      "mean_anomaly_deg": 275.8112,
      "mean_motion_rev_day": 15.30202341
    }
  ]
}